CCSDS_OMM_VERS = 2.0
CREATION_DATE  = 
ORIGINATOR     = 

OBJECT_NAME    = SOYUZ-MS 28
OBJECT_ID      = 2025-275A
CENTER_NAME    = EARTH
REF_FRAME      = TEME
TIME_SYSTEM    = UTC
MEAN_ELEMENT_THEORY = SGP/SGP4

EPOCH          = 2025-12-21T13:40:08.668128
MEAN_MOTION    = 15.49703708
ECCENTRICITY   = .00031656
INCLINATION    = 51.6324
RA_OF_ASC_NODE = 98.7522
ARG_OF_PERICENTER = 281.5679
MEAN_ANOMALY   = 78.4955

EPHEMERIS_TYPE = 0
CLASSIFICATION_TYPE = U
NORAD_CAT_ID   = 66664
ELEMENT_SET_NO = 999
REV_AT_EPOCH   = 128
BSTAR          = .1683656E-3
MEAN_MOTION_DOT = .9066E-4
MEAN_MOTION_DDOT = 0

CCSDS_OMM_VERS = 2.0
CREATION_DATE  = 
ORIGINATOR     = 

OBJECT_NAME    = 1998-067XS
OBJECT_ID      = 1998-067XS
CENTER_NAME    = EARTH
REF_FRAME      = TEME
TIME_SYSTEM    = UTC
MEAN_ELEMENT_THEORY = SGP/SGP4

EPOCH          = 2025-12-21T11:50:07.455840
MEAN_MOTION    = 15.51010585
ECCENTRICITY   = .00029529
INCLINATION    = 51.6316
RA_OF_ASC_NODE = 98.9926
ARG_OF_PERICENTER = 243.0961
MEAN_ANOMALY   = 116.9727

EPHEMERIS_TYPE = 0
CLASSIFICATION_TYPE = U
NORAD_CAT_ID   = 66906
ELEMENT_SET_NO = 999
REV_AT_EPOCH   = 297
BSTAR          = .42361543E-3
MEAN_MOTION_DOT = .24678E-3
MEAN_MOTION_DDOT = 0

CCSDS_OMM_VERS = 2.0
CREATION_DATE  = 
ORIGINATOR     = 

OBJECT_NAME    = 1998-067XT
OBJECT_ID      = 1998-067XT
CENTER_NAME    = EARTH
REF_FRAME      = TEME
TIME_SYSTEM    = UTC
MEAN_ELEMENT_THEORY = SGP/SGP4

EPOCH          = 2025-12-21T11:36:33.971328
MEAN_MOTION    = 15.52463027
ECCENTRICITY   = .00038794
INCLINATION    = 51.6316
RA_OF_ASC_NODE = 98.9297
ARG_OF_PERICENTER = 279.7244
MEAN_ANOMALY   = 80.3308

EPHEMERIS_TYPE = 0
CLASSIFICATION_TYPE = U
NORAD_CAT_ID   = 66907
ELEMENT_SET_NO = 999
REV_AT_EPOCH   = 297
BSTAR          = .87766366E-3
MEAN_MOTION_DOT = .54612E-3
MEAN_MOTION_DDOT = 0

CCSDS_OMM_VERS = 2.0
CREATION_DATE  = 
ORIGINATOR     = 

OBJECT_NAME    = 1998-067XU
OBJECT_ID      = 1998-067XU
CENTER_NAME    = EARTH
REF_FRAME      = TEME
TIME_SYSTEM    = UTC
MEAN_ELEMENT_THEORY = SGP/SGP4

EPOCH          = 2025-12-21T00:46:29.963136
MEAN_MOTION    = 15.52510982
ECCENTRICITY   = .00039042
INCLINATION    = 51.6311
RA_OF_ASC_NODE = 101.1653
ARG_OF_PERICENTER = 276.2494
MEAN_ANOMALY   = 83.8051

EPHEMERIS_TYPE = 0
CLASSIFICATION_TYPE = U
NORAD_CAT_ID   = 66908
ELEMENT_SET_NO = 999
REV_AT_EPOCH   = 290
BSTAR          = .80289362E-3
MEAN_MOTION_DOT = .49977E-3
MEAN_MOTION_DDOT = 0

CCSDS_OMM_VERS = 2.0
CREATION_DATE  = 
ORIGINATOR     = 

OBJECT_NAME    = SILVERSAT
OBJECT_ID      = 1998-067XV
CENTER_NAME    = EARTH
REF_FRAME      = TEME
TIME_SYSTEM    = UTC
MEAN_ELEMENT_THEORY = SGP/SGP4

EPOCH          = 2025-12-21T00:44:56.475744
MEAN_MOTION    = 15.52677939
ECCENTRICITY   = .0003815
INCLINATION    = 51.6312
RA_OF_ASC_NODE = 101.1583
ARG_OF_PERICENTER = 279.3746
MEAN_ANOMALY   = 80.6813

EPHEMERIS_TYPE = 0
CLASSIFICATION_TYPE = U
NORAD_CAT_ID   = 66909
ELEMENT_SET_NO = 999
REV_AT_EPOCH   = 290
BSTAR          = .85685378E-3
MEAN_MOTION_DOT = .53716E-3
MEAN_MOTION_DDOT = 0

CCSDS_OMM_VERS = 2.0
CREATION_DATE  = 
ORIGINATOR     = 

OBJECT_NAME    = 1998-067XW
OBJECT_ID      = 1998-067XW
CENTER_NAME    = EARTH
REF_FRAME      = TEME
TIME_SYSTEM    = UTC
MEAN_ELEMENT_THEORY = SGP/SGP4

EPOCH          = 2025-12-21T13:03:49.034592
MEAN_MOTION    = 15.52723142
ECCENTRICITY   = .00040923
INCLINATION    = 51.6308
RA_OF_ASC_NODE = 98.5841
ARG_OF_PERICENTER = 255.5367
MEAN_ANOMALY   = 104.5169

EPHEMERIS_TYPE = 0
CLASSIFICATION_TYPE = U
NORAD_CAT_ID   = 66910
ELEMENT_SET_NO = 999
REV_AT_EPOCH   = 298
BSTAR          = .85387417E-3
MEAN_MOTION_DOT = .53617E-3
MEAN_MOTION_DDOT = 0

CCSDS_OMM_VERS = 2.0
CREATION_DATE  = 
ORIGINATOR     = 

OBJECT_NAME    = 1998-067XX
OBJECT_ID      = 1998-067XX
CENTER_NAME    = EARTH
REF_FRAME      = TEME
TIME_SYSTEM    = UTC
MEAN_ELEMENT_THEORY = SGP/SGP4

EPOCH          = 2025-12-21T12:59:52.344384
MEAN_MOTION    = 15.53156659
ECCENTRICITY   = .00038223
INCLINATION    = 51.6308
RA_OF_ASC_NODE = 98.5657
ARG_OF_PERICENTER = 260.7512
MEAN_ANOMALY   = 99.3046

EPHEMERIS_TYPE = 0
CLASSIFICATION_TYPE = U
NORAD_CAT_ID   = 66911
ELEMENT_SET_NO = 999
REV_AT_EPOCH   = 297
BSTAR          = .97482333E-3
MEAN_MOTION_DOT = .62319E-3
MEAN_MOTION_DDOT = 0

CCSDS_OMM_VERS = 2.0
CREATION_DATE  = 
ORIGINATOR     = 

OBJECT_NAME    = 1998-067XY
OBJECT_ID      = 1998-067XY
CENTER_NAME    = EARTH
REF_FRAME      = TEME
TIME_SYSTEM    = UTC
MEAN_ELEMENT_THEORY = SGP/SGP4

EPOCH          = 2025-12-21T11:41:25.287072
MEAN_MOTION    = 15.51934859
ECCENTRICITY   = .0004003
INCLINATION    = 51.6317
RA_OF_ASC_NODE = 98.9521
ARG_OF_PERICENTER = 271.7448
MEAN_ANOMALY   = 88.3083

EPHEMERIS_TYPE = 0
CLASSIFICATION_TYPE = U
NORAD_CAT_ID   = 66912
ELEMENT_SET_NO = 999
REV_AT_EPOCH   = 296
BSTAR          = .71547257E-3
MEAN_MOTION_DOT = .4353E-3
MEAN_MOTION_DDOT = 0

